{
  "norad_id": 68578,
  "name": "KUIPER-00229",
  "history": [
    {
      "epoch": "2026-04-09T12:06:36.563040Z",
      "apogee_km": 460.61474243266,
      "perigee_km": 450.02288592068635,
      "latitude_deg": -3.794797051659896e-05,
      "longitude_deg": 129.69659445524178,
      "height_km": 458.69629256801335,
      "semi_major_axis_km": 6833.455814176673,
      "eccentricity": 0.000775,
      "inclination_deg": 51.8698,
      "raan_deg": 149.1008,
      "arg_perigee_deg": 119.7287,
      "mean_anomaly_deg": 240.4471,
      "mean_motion_rev_day": 15.36887846
    }
  ]
}